{"type":"FeatureCollection","name":"auckland_water","provenance":"Synthetic","features":[{"type":"Feature","id":"W000","properties":{"name":"Waitemat\u0101 Harbour (schematic)","kind":"water"},"geometry":{"type":"Polygon","coordinates":[[[174.7649406,-36.882818],[174.7653313,-36.8820554],[174.7656937,-36.8812928],[174.7660264,-36.8805301],[174.7663279,-36.8797675],[174.7665971,-36.8790049],[174.7668331,-36.8782423],[174.7670351,-36.8774796],[174.7672025,-36.876717],[174.7673351,-36.8759544],[174.7674329,-36.8751918],[174.767496,-36.8744292],[174.7675248,-36.8736665],[174.7675202,-36.8729039],[174.7674829,-36.8721413],[174.7674142,-36.8713787],[174.7673156,-36.870616],[174.7671887,-36.8698534],[174.7670354,-36.8690908],[174.7668578,-36.8683282],[174.7666583,-36.8675656],[174.7664394,-36.8668029],[174.7662037,-36.8660403],[174.7659541,-36.8652777],[174.7656936,-36.8645151],[174.7654252,-36.8637524],[174.7651521,-36.8629898],[174.7648777,-36.8622272],[174.764605,-36.8614646],[174.7643375,-36.860702],[174.7640785,-36.8599393],[174.7638311,-36.8591767],[174.7635985,-36.8584141],[174.7633839,-36.8576515],[174.7631902,-36.8568888],[174.7630202,-36.8561262],[174.7628765,-36.8553636],[174.7627618,-36.854601],[174.7626782,-36.8538384],[174.7626277,-36.8530757],[174.7626122,-36.8523131],[174.7626332,-36.8515505],[174.7626919,-36.8507879],[174.7627893,-36.8500252],[174.762926,-36.8492626],[174.7631026,-36.8485],[174.7633189,-36.8477374],[174.7635748,-36.8469748],[174.7638698,-36.8462121],[174.7642029,-36.8454495],[174.7645732,-36.8446869],[174.764979,-36.8439243],[174.7654189,-36.8431616],[174.7658908,-36.842399],[174.7663926,-36.8416364],[174.7669218,-36.8408738],[174.7674759,-36.8401112],[174.7680521,-36.8393485],[174.7686475,-36.8385859],[174.769259,-36.8378233],[174.7698835,-36.8370607],[174.7705176,-36.836298],[174.7711581,-36.8355354],[174.7718018,-36.8347728],[174.7724451,-36.8340102],[174.773085,-36.8332476],[174.7737181,-36.8324849],[174.7743412,-36.8317223],[174.7749514,-36.8309597],[174.7755456,-36.8301971],[174.7761211,-36.8294344],[174.7766752,-36.8286718],[174.7772056,-36.8279092],[174.77771,-36.8271466],[174.7781863,-36.826384],[174.7786328,-36.8256213],[174.779048,-36.8248587],[174.7794305,-36.8240961],[174.7797792,-36.8233335],[174.7800934,-36.8225708],[174.7803726,-36.8218082],[174.7806164,-36.8210456],[174.7808248,-36.820283],[174.780998,-36.8195204],[174.7811365,-36.8187577],[174.781241,-36.8179951],[174.7813124,-36.8172325],[174.7813518,-36.8164699],[174.7813606,-36.8157072],[174.7813402,-36.8149446],[174.7812923,-36.814182],[174.7845213,-36.814182],[174.7844792,-36.8149446],[174.7844035,-36.8157072],[174.7842938,-36.8164699],[174.7841501,-36.8172325],[174.7839724,-36.8179951],[174.7837612,-36.8187577],[174.783517,-36.8195204],[174.7832407,-36.820283],[174.7829332,-36.8210456],[174.7825957,-36.8218082],[174.7822295,-36.8225708],[174.7818362,-36.8233335],[174.7814174,-36.8240961],[174.7809749,-36.8248587],[174.7805106,-36.8256213],[174.7800266,-36.826384],[174.7795248,-36.8271466],[174.7790074,-36.8279092],[174.7784766,-36.8286718],[174.7779347,-36.8294344],[174.777384,-36.8301971],[174.7768266,-36.8309597],[174.7762649,-36.8317223],[174.7757012,-36.8324849],[174.7751376,-36.8332476],[174.7745763,-36.8340102],[174.7740195,-36.8347728],[174.7734693,-36.8355354],[174.7729276,-36.836298],[174.7723963,-36.8370607],[174.7718774,-36.8378233],[174.7713727,-36.8385859],[174.7708836,-36.8393485],[174.7704119,-36.8401112],[174.769959,-36.8408738],[174.7695262,-36.8416364],[174.7691147,-36.842399],[174.7687258,-36.8431616],[174.7683603,-36.8439243],[174.7680193,-36.8446869],[174.7677034,-36.8454495],[174.7674133,-36.8462121],[174.7671496,-36.8469748],[174.7669126,-36.8477374],[174.7667026,-36.8485],[174.7665197,-36.8492626],[174.766364,-36.8500252],[174.7662354,-36.8507879],[174.7661336,-36.8515505],[174.7660583,-36.8523131],[174.766009,-36.8530757],[174.765985,-36.8538384],[174.7659857,-36.854601],[174.7660101,-36.8553636],[174.7660573,-36.8561262],[174.7661261,-36.8568888],[174.7662154,-36.8576515],[174.7663237,-36.8584141],[174.7664495,-36.8591767],[174.7665914,-36.8599393],[174.7667475,-36.860702],[174.7669162,-36.8614646],[174.7670954,-36.8622272],[174.7672833,-36.8629898],[174.7674778,-36.8637524],[174.7676767,-36.8645151],[174.7678778,-36.8652777],[174.768079,-36.8660403],[174.7682778,-36.8668029],[174.768472,-36.8675656],[174.7686592,-36.8683282],[174.7688372,-36.8690908],[174.7690035,-36.8698534],[174.7691559,-36.870616],[174.7692921,-36.8713787],[174.7694098,-36.8721413],[174.7695071,-36.8729039],[174.7695818,-36.8736665],[174.769632,-36.8744292],[174.769656,-36.8751918],[174.7696519,-36.8759544],[174.7696184,-36.876717],[174.7695541,-36.8774796],[174.7694578,-36.8782423],[174.7693285,-36.8790049],[174.7691656,-36.8797675],[174.7689684,-36.8805301],[174.7687367,-36.8812928],[174.7684704,-36.8820554],[174.7681696,-36.882818],[174.7649406,-36.882818]]]}}]}